NORAD_CAT_ID,OBJECT_NAME,OBJECT_TYPE,EPOCH,MEAN_MOTION,ECCENTRICITY,INCLINATION,RA_OF_ASC_NODE,ARG_OF_PERICENTER,MEAN_ANOMALY,BSTAR,MEAN_MOTION_DOT,MEAN_MOTION_DDOT,TLE_LINE0,TLE_LINE1,TLE_LINE2,SEMIMAJOR_AXIS,PERIOD,APOGEE,PERIGEE,DECAYED
55278.0,STARLINK-5289,PAYLOAD,2023-12-05 09:01:55,14.98323823,0.0002687,70.0004,325.2971,279.955,80.1306,0.00031857,3.71e-05,0.0,0 STARLINK-5289,1 55278U 23010K   23339.37633341  .00003710  00000-0  31857-3 0  9991,2 55278  70.0004 325.2971 0002687 279.9550  80.1306 14.98323823 49159,6950.212,96.107,573.945,570.209,0.0
55278.0,STARLINK-5289,PAYLOAD,2023-12-06 04:15:31,14.98340624,0.0002352,70.001,323.278,269.2923,90.7967,0.00017871,2.041e-05,0.0,0 STARLINK-5289,1 55278U 23010K   23340.17744470  .00002041  00000-0  17871-3 0  9993,2 55278  70.0010 323.2780 0002352 269.2923  90.7967 14.98340624 48974,6950.16,96.106,573.66,570.39,0.0
55278.0,STARLINK-5289,PAYLOAD,2023-12-06 09:03:55,14.98339482,0.0002316,70.001,322.772,272.0341,88.0553,0.00016284,1.851e-05,0.0,0 STARLINK-5289,1 55278U 23010K   23340.37772466  .00001851  00000-0  16284-3 0  9996,2 55278  70.0010 322.7720 0002316 272.0341  88.0553 14.98339482 49307,6950.164,96.106,573.638,570.419,0.0
55278.0,STARLINK-5289,PAYLOAD,2023-12-07 04:17:32,14.9833488,0.0002138,70.0016,320.7542,258.339,101.7529,-2.8591e-06,-1.27e-06,0.0,0 STARLINK-5289,1 55278U 23010K   23341.17884694 -.00000127  00000-0 -28591-5 0  9995,2 55278  70.0016 320.7542 0002138 258.3390 101.7529 14.98334880 49129,6950.178,96.107,573.529,570.557,0.0
55278.0,STARLINK-5289,PAYLOAD,2023-12-07 09:05:56,14.98330862,0.0002362,70.0008,320.2463,271.3793,88.7095,-7.1198e-05,-9.42e-06,0.0,0 STARLINK-5289,1 55278U 23010K   23341.37913111 -.00000942  00000-0 -71198-4 0  9999,2 55278  70.0008 320.2463 0002362 271.3793  88.7095 14.98330862 49452,6950.19,96.107,573.697,570.414,0.0
55278.0,STARLINK-5289,PAYLOAD,2023-12-08 04:19:33,14.98334468,0.0002074,70.0007,318.225,277.0115,83.0809,-7.881e-05,-1.033e-05,0.0,0 STARLINK-5289,1 55278U 23010K   23342.18024566 -.00001033  00000-0 -78810-4 0  9996,2 55278  70.0007 318.2250 0002074 277.0115  83.0809 14.98334468 49270,6950.179,96.107,573.486,570.603,0.0
55278.0,STARLINK-5289,PAYLOAD,2023-12-08 09:07:56,14.98350531,0.0002114,70.0004,317.7202,274.3668,85.725,-0.00032986,-4.028e-05,0.0,0 STARLINK-5289,1 55278U 23010K   23342.38051993 -.00004028  00000-0 -32986-3 0  9992,2 55278  70.0004 317.7202 0002114 274.3668  85.7250 14.98350531 49308,6950.129,96.106,573.464,570.525,0.0
55278.0,STARLINK-5289,PAYLOAD,2023-12-09 04:21:33,14.98330792,0.000258,70.0004,315.7014,277.5023,82.5843,4.5762e-05,4.53e-06,0.0,0 STARLINK-5289,1 55278U 23010K   23343.18164138  .00000453  00000-0  45762-4 0  9990,2 55278  70.0004 315.7014 0002580 277.5023  82.5843 14.98330792 49427,6950.19,96.107,573.849,570.262,0.0
55278.0,STARLINK-5289,PAYLOAD,2023-12-09 09:09:57,14.98331637,0.0002532,70.0004,315.1962,275.9492,84.1378,5.1454e-05,5.21e-06,0.0,0 STARLINK-5289,1 55278U 23010K   23343.38191980  .00000521  00000-0  51454-4 0  9998,2 55278  70.0004 315.1962 0002532 275.9492  84.1378 14.98331637 49758,6950.188,96.107,573.813,570.293,0.0
55278.0,STARLINK-5289,PAYLOAD,2023-12-10 07:35:51,14.98329356,0.000225,70.0013,312.8386,287.7614,72.33,1.3145e-06,-7.7e-07,0.0,0 STARLINK-5289,1 55278U 23010K   23344.31656366 -.00000077  00000-0  13145-5 0  9999,2 55278  70.0013 312.8386 0002250 287.7614  72.3300 14.98329356 49597,6950.195,96.107,573.624,570.496,0.0
55278.0,STARLINK-5289,PAYLOAD,2023-12-11 07:37:52,14.98327012,0.0002621,70.0001,310.3155,263.0046,97.0815,-4.5297e-05,-6.33e-06,0.0,0 STARLINK-5289,1 55278U 23010K   23345.31796386 -.00000633  00000-0 -45297-4 0  9998,2 55278  70.0001 310.3155 0002621 263.0046  97.0815 14.98327012 49748,6950.202,96.107,573.889,570.245,0.0
55278.0,STARLINK-5289,PAYLOAD,2023-12-11 22:03:04,14.98328258,0.0002885,69.9995,308.7996,271.3149,88.768,6.4978e-05,6.82e-06,0.0,0 STARLINK-5289,1 55278U 23010K   23345.91879906  .00000682  00000-0  64978-4 0  9993,2 55278  69.9995 308.7996 0002885 271.3149  88.7680 14.98328258 50134,6950.198,96.107,574.068,570.058,0.0
55278.0,STARLINK-5289,PAYLOAD,2023-12-12 02:51:28,14.98330828,0.0002589,70.0006,308.2962,263.8946,96.1919,7.1648e-05,7.62e-06,0.0,0 STARLINK-5289,1 55278U 23010K   23346.11907743  .00000762  00000-0  71648-4 0  9998,2 55278  70.0006 308.2962 0002589 263.8946  96.1919 14.98330828 49862,6950.19,96.107,573.855,570.256,0.0
55278.0,STARLINK-5289,PAYLOAD,2023-12-12 07:39:52,14.98330031,0.0002757,70.0003,307.7897,273.7791,86.3053,8.0358e-05,8.66e-06,0.0,0 STARLINK-5289,1 55278U 23010K   23346.31935789  .00000866  00000-0  80358-4 0  9994,2 55278  70.0003 307.7897 0002757 273.7791  86.3053 14.98330031 50199,6950.193,96.107,573.974,570.142,0.0
55278.0,STARLINK-5289,PAYLOAD,2023-12-12 22:05:05,14.9832971,0.0002465,70.0004,306.2752,265.1058,94.9819,6.3473e-05,6.64e-06,0.0,0 STARLINK-5289,1 55278U 23010K   23346.92019838  .00000664  00000-0  63473-4 0  9994,2 55278  70.0004 306.2752 0002465 265.1058  94.9819 14.98329710 50288,6950.194,96.107,573.772,570.346,0.0
55278.0,STARLINK-5289,PAYLOAD,2023-12-13 07:41:53,14.98330662,0.0002461,70.0001,305.2655,261.6355,98.4525,3.4987e-05,3.25e-06,0.0,0 STARLINK-5289,1 55278U 23010K   23347.32075878  .00000325  00000-0  34987-4 0  9997,2 55278  70.0001 305.2655 0002461 261.6355  98.4525 14.98330662 50048,6950.191,96.107,573.766,570.345,0.0
55278.0,STARLINK-5289,PAYLOAD,2023-12-13 22:07:05,14.98357543,0.0002149,70.0004,303.7501,264.3224,95.769,-0.00041889,-5.091e-05,0.0,0 STARLINK-5289,1 55278U 23010K   23347.92159674 -.00005091  00000-0 -41889-3 0  9995,2 55278  70.0004 303.7501 0002149 264.3224  95.7690 14.98357543 50435,6950.108,96.105,573.466,570.479,0.0
55278.0,STARLINK-5289,PAYLOAD,2023-12-14 06:07:45,14.98356099,0.0002224,70.0001,302.9091,262.8884,97.2023,-0.00044378,-5.387e-05,0.0,0 STARLINK-5289,1 55278U 23010K   23348.25539329 -.00005387  00000-0 -44378-3 0  9995,2 55278  70.0001 302.9091 0002224 262.8884  97.2023 14.98356099 50180,6950.112,96.105,573.523,570.431,0.0
55278.0,STARLINK-5289,PAYLOAD,2023-12-14 22:09:06,14.98332129,0.0002635,70.0,301.2261,263.3181,96.7678,3.82e-07,-8.8e-07,0.0,0 STARLINK-5289,1 55278U 23010K   23348.92299593 -.00000088  00000-0  38200-6 0  9997,2 55278  70.0000 301.2261 0002635 263.3181  96.7678 14.98332129 50584,6950.186,96.107,573.883,570.22,0.0
55278.0,STARLINK-5289,PAYLOAD,2023-12-15 04:33:38,14.98333582,0.0002602,70.0001,300.5527,262.8214,97.2649,2.0667e-05,1.54e-06,0.0,0 STARLINK-5289,1 55278U 23010K   23349.19003394  .00000154  00000-0  20667-4 0  9998,2 55278  70.0001 300.5527 0002602 262.8214  97.2649 14.98333582 50327,6950.182,96.107,573.855,570.238,0.0
55278.0,STARLINK-5289,PAYLOAD,2023-12-15 06:09:46,14.98333995,0.00026,70.0001,300.3844,262.9144,97.1719,2.4736e-05,2.02e-06,0.0,0 STARLINK-5289,1 55278U 23010K   23349.25679342  .00000202  00000-0  24736-4 0  9992,2 55278  70.0001 300.3844 0002600 262.9144  97.1719 14.98333995 50637,6950.181,96.107,573.853,570.238,0.0
55278.0,STARLINK-5289,PAYLOAD,2023-12-15 22:11:07,14.98326894,0.0002433,70.0009,298.7023,250.0739,110.0158,-1.5675e-06,-1.12e-06,0.0,0 STARLINK-5289,1 55278U 23010K   23349.92439784 -.00000112  00000-0 -15675-5 0  9995,2 55278  70.0009 298.7023 0002433 250.0739 110.0158 14.98326894 50739,6950.202,96.107,573.758,570.377,0.0
55278.0,STARLINK-5289,PAYLOAD,2023-12-16 02:59:32,14.98325234,0.0002477,70.0009,298.1977,246.4215,113.6684,-2.1681e-05,-3.52e-06,0.0,0 STARLINK-5289,1 55278U 23010K   23350.12467969 -.00000352  00000-0 -21681-4 0  9994,2 55278  70.0009 298.1977 0002477 246.4215 113.6684 14.98325234 50467,6950.208,96.107,573.794,570.351,0.0
55278.0,STARLINK-5289,PAYLOAD,2023-12-16 04:35:40,14.98325269,0.0002478,70.0009,298.0293,247.4259,112.6638,-2.1908e-05,-3.54e-06,0.0,0 STARLINK-5289,1 55278U 23010K   23350.19143993 -.00000354  00000-0 -21908-4 0  9993,2 55278  70.0009 298.0293 0002478 247.4259 112.6638 14.98325269 50777,6950.208,96.107,573.795,570.35,0.0
55278.0,STARLINK-5289,PAYLOAD,2023-12-16 22:13:09,14.98327659,0.0002462,70.0011,296.1777,242.9581,117.1327,-4.0332e-05,-5.74e-06,0.0,0 STARLINK-5289,1 55278U 23010K   23350.92580012 -.00000574  00000-0 -40332-4 0  9997,2 55278  70.0011 296.1777 0002462 242.9581 117.1327 14.98327659 50889,6950.2,96.107,573.776,570.354,0.0
55278.0,STARLINK-5289,PAYLOAD,2023-12-17 03:01:33,14.98325947,0.0002475,70.0013,295.6731,242.0776,118.0132,-5.6882e-05,-7.71e-06,0.0,0 STARLINK-5289,1 55278U 23010K   23351.12608204 -.00000771  00000-0 -56882-4 0  9990,2 55278  70.0013 295.6731 0002475 242.0776 118.0132 14.98325947 50619,6950.205,96.107,573.791,570.35,0.0
55278.0,STARLINK-5289,PAYLOAD,2023-12-17 06:13:49,14.9832557,0.0002477,70.0011,295.3362,245.0962,114.994,-6.0424e-05,-8.14e-06,0.0,0 STARLINK-5289,1 55278U 23010K   23351.25960288 -.00000814  00000-0 -60424-4 0  9992,2 55278  70.0011 295.3362 0002477 245.0962 114.9940 14.98325570 50935,6950.207,96.107,573.793,570.35,0.0
55278.0,STARLINK-5289,PAYLOAD,2023-12-17 22:15:09,14.98331886,0.0002384,70.0005,293.6476,270.0224,90.0662,0.00016494,1.876e-05,0.0,0 STARLINK-5289,1 55278U 23010K   23351.92719321  .00001876  00000-0  16494-3 0  9990,2 55278  70.0005 293.6476 0002384 270.0224  90.0662 14.98331886 51035,6950.187,96.107,573.709,570.395,0.0
55278.0,STARLINK-5289,PAYLOAD,2023-12-18 03:03:33,14.98345518,0.0002645,70.0004,293.1459,257.2484,102.8379,4.9143e-05,4.94e-06,0.0,0 STARLINK-5289,1 55278U 23010K   23352.12746623  .00000494  00000-0  49143-4 0  9991,2 55278  70.0004 293.1459 0002645 257.2484 102.8379 14.98345518 50768,6950.145,96.106,573.848,570.172,0.0
55278.0,STARLINK-5289,PAYLOAD,2023-12-18 06:15:49,14.98341457,0.000258,70.0005,292.81,253.9232,106.1644,0.00018111,2.069e-05,0.0,0 STARLINK-5289,1 55278U 23010K   23352.26098416  .00002069  00000-0  18111-3 0  9996,2 55278  70.0005 292.8100 0002580 253.9232 106.1644 14.98341457 51086,6950.157,96.106,573.816,570.229,0.0
